STARLINK-35594          
1 66157U 25240M   26068.36986020  .00041631  00000+0  14099-2 0  9993
2 66157  53.1614  64.0013 0001623  75.4773 284.6408 15.30198855 21949
2025-313BE              
1 67482U 25313BE  26068.69721505  .00077178  00000+0  26504-2 0  9996
2 67482  97.3989 145.3568 0007208 335.3714  24.7181 15.29801687  7972
